# FY3D (LEO)
1 43010U 17072A   26169.97970370  .00000255  00000+0  14225-3 0  9999
2 43010  99.0129 144.4349 0002494  60.6130 299.5294 14.19740447445244

# FY3E (LEO)
1 49008U 21062A   26169.96336970 -.00000272  00000+0 -10747-3 0  9993
2 49008  98.7490 173.3517 0002849  83.5454 276.6047 14.19903794256832

# FY3F (LEO)
1 57490U 23111A   26169.94724640  .00000047  00000+0  42379-4 0  9992
2 57490  98.6836 239.9232 0001586  92.2686 267.8673 14.19939406149111

# FY3G (LEO)
1 56232U 23055A   26169.97281742  .00018797  00000+0  30513-3 0  9993
2 56232  49.9936 336.8195 0007009 303.8108  56.2191 15.52697513180281

# C2E1 (LEO)
1 44349U 19036L   26169.91389705  .00002147  00000+0  15844-3 0  9997
2 44349  23.9989  20.7527 0000668 173.6453 186.4056 14.96511511384917

# C2E2 (LEO)
1 44351U 19036N   26169.02523322  .00002008  00000+0  14649-3 0  9995
2 44351  23.9964 143.1646 0000662 170.5801 189.4713 14.96501020383716

# C2E3 (LEO)
1 44343U 19036E   26169.37338797  .00003016  00000+0  16102-3 0  9990
2 44343  23.9974 170.3761 0000316 298.1513  61.8958 15.09805082383423

# C2E4 (LEO)
1 44350U 19036M   26169.93637814  .00002069  00000+0  15171-3 0  9994
2 44350  23.9980  82.7050 0001041 199.7513 160.2947 14.96503544384333

# C2E5 (LEO)
1 44358U 19036V   26169.93571609  .00001949  00000+0  14135-3 0  9996
2 44358  23.9983 256.5948 0000446 125.5681 234.4862 14.96523522382619

# C2E6 (LEO)
1 44353U 19036Q   26169.75843904  .00002255  00000+0  16763-3 0  9991
2 44353  23.9990 319.0386 0001397 106.6528 253.4127 14.96517563382050

# G01 (GNSS)
1 62339U 24242A   26169.83198318 -.00000092  00000+0  00000+0 0  9992
2 62339  54.8480 334.1138 0017586   4.3197 352.3728  2.00571448 11281

# G02 (GNSS)
1 28474U 04045A   26169.72826587 -.00000088  00000+0  00000+0 0  9992
2 28474  55.1348 324.8340 0169874 316.4539 354.1241  2.00555891158451

# G03 (GNSS)
1 40294U 14068A   26168.92054840 -.00000079  00000+0  00000+0 0  9998
2 40294  56.9881  30.9264 0067071  70.6155 290.1646  2.00576133 85229

# G04 (GNSS)
1 43873U 18109A   26169.17581209 -.00000014  00000+0  00000+0 0  9995
2 43873  55.6828  92.1474 0038174 197.9652 279.6252  2.00561580 55099

# G05 (GNSS)
1 35752U 09043A   26167.28361034 -.00000073  00000+0  00000+0 0  9996
2 35752  56.2097  27.4871 0053768  83.1336  31.1253  2.00554227123340

# G06 (GNSS)
1 39741U 14026A   26168.95890413 -.00000086  00000+0  00000+0 0  9992
2 39741  56.4979 331.4873 0038170 326.5547  33.1958  2.00560834 88559

# G07 (GNSS)
1 32711U 08012A   26169.13324188  .00000048  00000+0  00000+0 0  9999
2 32711  54.4975 149.8869 0211272 247.8593 109.8588  2.00572404133772

# G08 (GNSS)
1 40730U 15033A   26169.71683650 -.00000041  00000+0  00000+0 0  9990
2 40730  53.9811 267.0235 0115086  30.2304 330.4710  2.00556109 80027

# G09 (GNSS)
1 40105U 14045A   26169.05068652 -.00000019  00000+0  00000+0 0  9999
2 40105  55.3537  88.4306 0033348 118.2439 242.0957  2.00558400 86094

# G10 (GNSS)
1 41019U 15062A   26169.27429475 -.00000081  00000+0  00000+0 0  9991
2 41019  56.9600  30.7691 0111896 230.9854 128.0646  2.00566903 77851

# G11 (GNSS)
1 48859U 21054A   26167.95784770 -.00000087  00000+0  00000+0 0  9999
2 48859  55.1744 332.4683 0025342 228.5515  94.2637  2.00568788 36740

# G12 (GNSS)
1 29601U 06052A   26167.42124558  .00000054  00000+0  00000+0 0  9991
2 29601  54.9348 214.0365 0085218  90.8278 270.2339  2.00557832143390

# G13 (GNSS)
1 24876U 97035A   26169.19877454 -.00000004  00000+0  00000+0 0  9993
2 24876  55.9954  98.5358 0102538  56.9444 304.0223  2.00563795211976

# G14 (GNSS)
1 46826U 20078A   26169.83468736  .00000028  00000+0  00000+0 0  9990
2 46826  53.9794 210.7115 0073606 207.3113 204.4520  2.00564831 41541

# G15 (GNSS)
1 32260U 07047A   26169.22203142 -.00000033  00000+0  00000+0 0  9996
2 32260  54.0959  80.0229 0166811  87.3939 274.5281  2.00555096136832

# G16 (GNSS)
1 27663U 03005A   26169.67511436  .00000025  00000+0  00000+0 0  9994
2 27663  54.8819 214.9098 0147937  53.0835   1.0670  2.00560468171340

# G17 (GNSS)
1 28874U 05038A   26169.42005727 -.00000043  00000+0  00000+0 0  9992
2 28874  54.8770 273.1277 0127877 296.1687 115.6239  2.00565534151860

# G18 (GNSS)
1 44506U 19056A   26169.64883098 -.00000089  00000+0  00000+0 0  9996
2 44506  55.6361 331.0838 0062276 197.6239 165.2029  2.00569581 50100

# G19 (GNSS)
1 28190U 04009A   26169.40913097 -.00000046  00000+0  00000+0 0  9999
2 28190  54.8286 275.6379 0116203 173.1352 202.0749  2.00554634162977

# G21 (GNSS)
1 64202U 25116A   26169.32753116 -.00000085  00000+0  00000+0 0  9993
2 64202  55.2356  31.0839 0008570 338.5670 196.7311  2.00575695  7899

# G22 (GNSS)
1 26407U 00040A   26169.73207971  .00000025  00000+0  00000+0 0  9998
2 26407  54.8512 215.1009 0121028 302.4827  16.7895  2.00557662189977

# G23 (GNSS)
1 45854U 20041A   26165.55605578 -.00000064  00000+0  00000+0 0  9993
2 45854  56.6678  29.0455 0063716 204.6721  21.4099  2.00558471 43987

# G24 (GNSS)
1 38833U 12053A   26169.81188956  .00000047  00000+0  00000+0 0  9995
2 38833  53.5864 143.5327 0180385  65.7792 296.0607  2.00567462 99475

# G25 (GNSS)
1 36585U 10022A   26168.96081780  .00000037  00000+0  00000+0 0  9992
2 36585  54.2701 208.5308 0126293  66.0938 297.8200  2.00562413117616

# G26 (GNSS)
1 40534U 15013A   26169.55825448  .00000035  00000+0  00000+0 0  9997
2 40534  53.1677 204.1208 0109553  40.1397 320.7269  2.00551281 81856

# G27 (GNSS)
1 39166U 13023A   26169.67891132 -.00000041  00000+0  00000+0 0  9999
2 39166  54.5028 268.9129 0141519  51.0513 310.2401  2.00563410 95910

# G28 (GNSS)
1 55268U 23009A   26167.62160980  .00000044  00000+0  00000+0 0  9990
2 55268  55.1227 148.5411 0006250 321.9869 156.3274  2.00571344 25231

# G29 (GNSS)
1 32384U 07062A   26167.53498160 -.00000029  00000+0  00000+0 0  9993
2 32384  55.0322 274.1789 0035702 165.2122 184.0447  2.00560015135492

# G30 (GNSS)
1 39533U 14008A   26169.68055942  .00000050  00000+0  00000+0 0  9992
2 39533  53.6549 149.2587 0084219 231.2964 127.9208  2.00559851 89713

# G31 (GNSS)
1 29486U 06042A   26169.13028664  .00000049  00000+0  00000+0 0  9996
2 29486  54.7109 151.3015 0106649  54.4413  46.6051  2.00569747144416

# G32 (GNSS)
1 41328U 16007A   26164.87780105 -.00000028  00000+0  00000+0 0  9996
2 41328  55.5220  89.5909 0096120 247.4205 111.5460  2.00551861 75773

# C06 (GNSS)
1 36828U 10036A   26169.91605882 -.00000085  00000+0  00000+0 0  9992
2 36828  54.3027 162.9431 0059157 225.2467 316.3793  1.00271895 58111

# C04 (GNSS)
1 37210U 10057A   26169.99026428 -.00000120  00000+0  00000+0 0  9992
2 37210   3.6522  68.9375 0005310 196.2436 158.5276  1.00270591 57305

# C07 (GNSS)
1 37256U 10068A   26169.68366918 -.00000219  00000+0  00000+0 0  9990
2 37256  47.5458 271.8126 0055907 212.7128 136.4505  1.00282207 56809

# C14 (GNSS)
1 38775U 12050B   26168.90464876 -.00000054  00000+0  00000+0 0  9993
2 38775  56.5449  62.8706 0013670 357.5201   2.5153  1.86230869 93320

# C01 (GNSS)
1 44231U 19027A   26169.92351219 -.00000254  00000+0  00000+0 0  9999
2 44231   1.6632  74.4969 0010153 281.9068  27.7518  1.00270233 26092

# C24 (GNSS)
1 43582U 18062B   26169.58142339  .00000055  00000+0  00000+0 0  9996
2 43582  54.0852 182.2454 0004955   8.3191 351.7130  1.86227846 53663

# C26 (GNSS)
1 43602U 18067A   26165.76115788  .00000093  00000+0  00000+0 0  9990
2 43602  54.1799 181.1228 0007735  29.8475 330.2441  1.86227714 53072

# C25 (GNSS)
1 43603U 18067B   26169.65490003  .00000056  00000+0  00000+0 0  9998
2 43603  54.1778 180.9540 0004495  12.7503 347.2821  1.86227132 53172

# C32 (GNSS)
1 43622U 18072A   26169.07281877 -.00000055  00000+0  00000+0 0  9998
2 43622  56.6251  62.6309 0007212 330.3756  29.6261  1.86231145 52676

# C33 (GNSS)
1 43623U 18072B   26167.86433090 -.00000051  00000+0  00000+0 0  9996
2 43623  56.6260  62.6651 0006189 359.6599   0.3805  1.86231280 52645

# C35 (GNSS)
1 43647U 18078A   26167.48269892 -.00000069  00000+0  00000+0 0  9992
2 43647  54.0905 300.0107 0007202  41.0576 318.9858  1.86232208 52140

# C34 (GNSS)
1 43648U 18078B   26169.22283431 -.00000076  00000+0  00000+0 0  9990
2 43648  54.0846 299.9501 0004125  57.8841 302.1506  1.86232335 52191

# C59 (GNSS)
1 43683U 18085A   26169.92654553 -.00000116  00000+0  00000+0 0  9996
2 43683   2.8733  97.3191 0008058 349.9693 313.3740  1.00270301 28075

# C36 (GNSS)
1 43706U 18093A   26168.42222017  .00000058  00000+0  00000+0 0  9995
2 43706  54.1690 182.2880 0010176 292.0990 142.8043  1.86228332 51544

# C37 (GNSS)
1 43707U 18093B   26169.24772446  .00000055  00000+0  00000+0 0  9990
2 43707  54.1696 182.2521 0007998 320.6332  39.3337  1.86226419 51550

# C38 (GNSS)
1 44204U 19023A   26169.60920451 -.00000224  00000+0  00000+0 0  9997
2 44204  58.6970  37.6341 0025544 225.7171 340.8879  1.00291017  7221

# C39 (GNSS)
1 44337U 19035A   26169.88675894 -.00000097  00000+0  00000+0 0  9993
2 44337  55.2463 158.8478 0039664 216.5160 330.6306  1.00265889 25689

# C46 (GNSS)
1 44542U 19061A   26169.31634865  .00000056  00000+0  00000+0 0  9995
2 44542  54.3963 182.6897 0008331 358.6257   1.3978  1.86229078 45812

# C45 (GNSS)
1 44543U 19061B   26167.55603885  .00000067  00000+0  00000+0 0  9990
2 44543  54.3947 182.7174 0005670 338.0060 193.4228  1.86227264 45783

# C44 (GNSS)
1 44793U 19078A   26167.54530678 -.00000069  00000+0  00000+0 0  9996
2 44793  53.9366 299.8507 0006347  50.5966 309.4493  1.86227179 44634

# C43 (GNSS)
1 44794U 19078B   26169.29611751 -.00000076  00000+0  00000+0 0  9991
2 44794  53.9076 299.7502 0004064  49.2520 310.7784  1.86227678 44678

# C41 (GNSS)
1 44864U 19090A   26169.30061566 -.00000056  00000+0  00000+0 0  9996
2 44864  56.5601  62.7540 0017907 298.0064 262.3772  1.86231158 44257

# C42 (GNSS)
1 44865U 19090B   26169.67527745 -.00000058  00000+0  00000+0 0  9995
2 44865  56.5620  62.7761 0015615 312.2190 228.9431  1.86231125 44240
